#dP2019  4  7  0  0  0.00000000      96 __u+U ITR00 FIT  IAC
## 2048      0.00000000   900.00000000 58580 0.0000000000000
+  103   C01C02C03C04C05C06C07C08C09C10C11C12C13C14C16C21C23
+        C27C29C30E01E02E03E04E05E07E08E09E11E12E13E14E15E18
+        E19E21E24E25E26E27E30E31E33E36G01G02G03G04G05G06G07
+        G08G09G10G11G12G13G14G15G16G17G18G19G20G21G22G23G24
+        G25G26G27G28G29G30G31G32J01J02J03J07R01R02R03R04R05
+        R07R08R09R10R11R13R14R15R16R17R18R19R20R21R22R23R24
+        R26  0  0  0  0  0  0  0  0  0  0  0  0  0  0  0  0
++        12 11 12 12 12  9  9  9  8  8  8  8  8  8  9 16 14
++        17  0  0  5  5  5  5  5  5  5  5  5  5  5  5  5  5
++         5  5  5  5  5  5  5  5  0  5  3  3  3  4  3  3  3
++         3  3  3  3  3  3  3  3  3  3  3  3  3  3  3  3  3
++         3  3  3  3  4  3  3  3  9  9  9 16  5  6  5  5  5
++         5  5  5  5  5  6  5  5  5  5  6  6  5  5  5  5  5
++         8  0  0  0  0  0  0  0  0  0  0  0  0  0  0  0  0
%c M  cc GPS ccc cccc cccc cccc cccc ccccc ccccc ccccc ccccc
%c cc cc ccc ccc cccc cccc cccc cccc ccccc ccccc ccccc ccccc
%f  0.0000000  0.000000000  0.00000000000  0.000000000000000
%f  0.0000000  0.000000000  0.00000000000  0.000000000000000
%i    0    0    0    0      0      0      0      0         0
%i    0    0    0    0      0      0      0      0         0
/* INFORMATION & ANALYSIS CENTER (IAC) OF MCC   (RAPID DATA)
/* S/V CLOCKS ARE ALIGNED TO GPS & GLONASS TIME RESPECTIVELY
/* USING THE BROADCAST EPHEMERIS                            
/* PCV:IGS14_2038 OL/AL:FES2004  NONE     YN ORB:CoN CLK:CoN
*  2019 04 07 17 30  0.00000000
PC01 -32333.230465  27040.895529   -956.841240 999999.999999
PC02   4397.353929  41931.420548   1238.906478 999999.999999
PC03 -14823.249437  39511.749059     35.989847 999999.999999
PC04 -39632.007128  14359.174043   -266.849142 999999.999999
PC05  21905.638673  36020.403582   1445.547119 999999.999999
PC06 -11831.267288  36931.275239  17303.968864 999999.999999
PC07 -13246.434491  22239.955811 -33161.655400 999999.999999
PC08 -25918.950203  28455.231973  16979.543190 999999.999999
PC09  -2710.727677  42213.889988   2352.002737 999999.999999
PC10   1944.747609  27775.652933 -31441.538847 999999.999999
PC11 -16510.375012    759.960550 -22419.543902 999999.999999
PC12    219.839922 -24049.397851 -14152.455521 999999.999999
PC13 -11980.935030  29547.947177  27524.364395 999999.999999
PC14 -20209.761113 -17539.264617   7900.170053 999999.999999
PC16  -7568.837390  39600.000641  12670.479386 999999.999999
PC21 -10786.592159 -24255.478991  -8612.646656 999999.999999
PC23 -15455.033929  14500.490502 -18160.833674 999999.999999
PC27   -313.971493  24156.771005  13979.515690 999999.999999
PC29      0.000000      0.000000      0.000000 999999.999999
PC30      0.000000      0.000000      0.000000 999999.999999
PE01 -26780.041391   1036.689633 -12572.593529 999999.999999
PE02  26768.634902  -1055.903532  12594.914986 999999.999999
PE03  16522.388663  -4562.807672 -24127.892930 999999.999999
PE04  -6515.085308  23389.872939  16939.812339 999999.999999
PE05  16928.862911  17102.766787 -17231.359741 999999.999999
PE07  -7442.655615 -28652.032802    307.505793 999999.999999
PE08   6148.439017 -23487.894012 -16932.567942 999999.999999
PE09   7668.710943  28580.721189   -301.070733 999999.999999
PE11   -349.896951  20449.011666  21408.643923 999999.999999
PE12 -17486.157935  23108.544248   6108.405299 999999.999999
PE13    441.023869 -20465.217305 -21366.466660 999999.999999
PE14  -1125.451030  26304.768132   4049.543131 999999.999999
PE15  17160.530592 -23238.555175  -6417.338764 999999.999999
PE18 -10366.184937 -22923.432839 -17558.048853 999999.999999
PE19 -16918.795419   2319.890534  24184.170933 999999.999999
PE21 -26378.399852 -11788.816138   6428.731393 999999.999999
PE24  10688.359839  17683.702694 -21218.504697 999999.999999
PE25  26348.259117  11823.695135  -6492.443283 999999.999999
PE26 -16636.902788  -5970.411735 -23735.712246 999999.999999
PE27 -10340.780761 -17584.951525  21443.417799 999999.999999
PE30  11453.240602 -13182.548221  23887.184504 999999.999999
PE31 -11727.706607  13048.524327 -23840.496393 999999.999999
PE33 -23885.123835  12439.671607 -12288.983886 999999.999999
PE36  16581.136640   5710.645891  23853.510685 999999.999999
PG01   2722.771199 -16522.102599 -20711.676417 999999.999999
PG02 -21070.199998  15287.198106   5404.290742 999999.999999
PG03  -6223.729369 -19351.675288 -17168.659142 999999.999999
PG04 -11670.835339 -14077.837277  19275.491631 999999.999999
PG05 -13063.988386   9321.235632  21073.762670 999999.999999
PG06 -24955.595131   6198.567435  -6671.801534 999999.999999
PG07 -12379.145250 -10947.815892  21129.076576 999999.999999
PG08   5962.182592 -25235.402587   5266.030383 999999.999999
PG09  -9276.387664 -19420.393477  15514.445085 999999.999999
PG10  23345.692630   9771.278171  -8319.429597 999999.999999
PG11   4427.115977 -22330.183499 -14405.096521 999999.999999
PG12   4313.263449  19287.158334 -18043.741625 999999.999999
PG13 -12692.448087  20334.876812  11281.265534 999999.999999
PG14  15556.861690  -6007.549885 -20316.444361 999999.999999
PG15  -2760.615223  25970.953286   3223.118113 999999.999999
PG16  12294.961929  -8533.058496  21794.215622 999999.999999
PG17 -13990.202912  -4176.970389 -21786.774458 999999.999999
PG18  11959.070676 -18309.001482 -15462.502723 999999.999999
PG19 -15551.911236   5249.340745 -21198.317057 999999.999999
PG20  22583.883807  14025.406200   1610.000369 999999.999999
PG21  16470.547752   7768.119010  20097.750983 999999.999999
PG22   1513.615153 -16930.136171 -20181.437983 999999.999999
PG23  -2253.730352 -25583.097906   6185.380692 999999.999999
PG24  -6057.685399  18166.327905 -18424.732182 999999.999999
PG25  15688.241804  19524.438330  -9430.291266 999999.999999
PG26  20111.774921  -1132.599589  17379.781225 999999.999999
PG27  11815.203413 -18498.550580  14635.262092 999999.999999
PG28 -21870.234799 -12793.873783  -7193.608229 999999.999999
PG29   4176.407282  23226.977796  12160.343328 999999.999999
PG30 -21687.171235  -3318.231870  15113.652833 999999.999999
PG31  25469.842150  -6473.891725  -5239.692942 999999.999999
PG32  15300.067243    241.826847 -21656.808846 999999.999999
PJ01 -24058.874407  24259.210166  29763.741532 999999.999999
PJ02 -32736.598880  16115.124258 -16660.010179 999999.999999
PJ03 -21588.561286  31037.372917 -14055.721145 999999.999999
PJ07 -25390.127093  33672.977630     38.416423 999999.999999
PR01  -5777.854567 -22499.104727 -10552.611594 999999.999999
PR02 -14292.720816 -18703.359418   9804.380916 999999.999999
PR03 -13137.485159  -3324.415877  21643.957580 999999.999999
PR04  -3940.590715  14352.071449  20739.967474 999999.999999
PR05   6964.327273  23062.134482   8428.445068 999999.999999
PR07  12979.696489   2935.042100 -21731.359645 999999.999999
PR08   4403.785748 -13725.923563 -20987.354273 999999.999999
PR09  21514.027154   7179.938035 -11599.215635 999999.999999
PR10  25187.847967    273.511254   3726.223398 999999.999999
PR11  14803.487258  -8182.628227  19084.406577 999999.999999
PR13 -20635.329809  -7352.416834  13047.176544 999999.999999
PR14 -25225.283164     41.379920  -3821.020373 999999.999999
PR15 -15628.013765   7705.427827 -18612.571254 999999.999999
PR16   3396.526096  11118.356794 -22743.694731 999999.999999
PR17 -15593.836297   7832.465178 -18581.349706 999999.999999
PR18 -15648.611095  19769.710130  -4072.843148 999999.999999
PR19  -7757.480656  20748.293419  12658.287577 999999.999999
PR20   6248.562992   9035.754309  23035.746261 999999.999999
PR21  15726.235745  -8435.656079  18237.260349 999999.999999
PR22  14882.241700 -20578.048302   1467.223660 999999.999999
PR23   3798.841540 -18913.287756 -16688.064681 999999.999999
PR24  -7621.890611  -7392.868520 -23213.401944 999999.999999
PR26   4811.804219  10982.227024  22524.790206 999999.999999
EOF
